start=new Date('2022-06-13T00:00:00.000Z').valueOf();
sats=[{"REV_AT_EPOCH":"6221","TIME_SYSTEM":"UTC","REF_FRAME":"TEME","INCLINATION":"53.0559","RCS_SIZE":"LARGE","OBJECT_NAME":"STARLINK-2536","CLASSIFICATION_TYPE":"U","OBJECT_TYPE":"PAYLOAD","ARG_OF_PERICENTER":"61.1391","MEAN_MOTION_DOT":"0.00000817","NORAD_CAT_ID":"48310","EPHEMERIS_TYPE":"0","ECCENTRICITY":"0.00017780","OBJECT_ID":"2021-036AL","LAUNCH_DATE":"2021-04-29","PERIAPSIS":"545.986","TLE_LINE1":"1 48310U 21036AL  22163.21252133  .00000817  00000-0  73773-4 0  9998","SEMIMAJOR_AXIS":"6925.352","GP_ID":"205977368","COUNTRY_CODE":"US","SITE":"AFETR","EPOCH":"2022-06-12T05:06:01.842912","ELEMENT_SET_NO":"999","DECAY_DATE":null,"MEAN_ELEMENT_THEORY":"SGP4","FILE":"3493305","TLE_LINE2":"2 48310  53.0559 105.9745 0001778  61.1391 298.9776 15.06398898 62216","MEAN_MOTION_DDOT":"0.0000000000000","CENTER_NAME":"EARTH","MEAN_ANOMALY":"298.9776","PERIOD":"95.592","BSTAR":"0.00007377300000","APOAPSIS":"548.448","RA_OF_ASC_NODE":"105.9745","MEAN_MOTION":"15.06398898"},{"OBJECT_TYPE":"PAYLOAD","CLASSIFICATION_TYPE":"U","MEAN_MOTION_DOT":"-0.00000622","ARG_OF_PERICENTER":"67.2824","REF_FRAME":"TEME","TIME_SYSTEM":"UTC","REV_AT_EPOCH":"6221","INCLINATION":"53.0543","OBJECT_NAME":"STARLINK-2534","RCS_SIZE":"LARGE","PERIAPSIS":"545.970","LAUNCH_DATE":"2021-04-29","OBJECT_ID":"2021-036AM","TLE_LINE1":"1 48311U 21036AM  22163.20884411 -.00000622  00000-0 -22845-4 0  9998","SEMIMAJOR_AXIS":"6925.370","NORAD_CAT_ID":"48311","EPHEMERIS_TYPE":"0","ECCENTRICITY":"0.00018260","ELEMENT_SET_NO":"999","EPOCH":"2022-06-12T05:00:44.131104","DECAY_DATE":null,"COUNTRY_CODE":"US","GP_ID":"205978618","SITE":"AFETR","RA_OF_ASC_NODE":"105.9890","APOAPSIS":"548.499","MEAN_MOTION":"15.06393103","FILE":"3493305","MEAN_ELEMENT_THEORY":"SGP4","TLE_LINE2":"2 48311  53.0543 105.9890 0001826  67.2824 292.8358 15.06393103 62216","CENTER_NAME":"EARTH","MEAN_MOTION_DDOT":"0.0000000000000","MEAN_ANOMALY":"292.8358","PERIOD":"95.593","BSTAR":"-0.00002284500000"},{"MEAN_MOTION_DDOT":"0.0000000000000","CENTER_NAME":"EARTH","BSTAR":"0.00009334400000","PERIOD":"95.592","MEAN_ANOMALY":"298.5817","MEAN_ELEMENT_THEORY":"SGP4","FILE":"3493305","TLE_LINE2":"2 48312  53.0559 104.5233 0002349  61.5409 298.5817 15.06403879 62267","MEAN_MOTION":"15.06403879","APOAPSIS":"548.828","RA_OF_ASC_NODE":"104.5233","SITE":"AFETR","COUNTRY_CODE":"US","GP_ID":"205978869","DECAY_DATE":null,"ELEMENT_SET_NO":"999","EPOCH":"2022-06-12T12:53:06.848448","EPHEMERIS_TYPE":"0","ECCENTRICITY":"0.00023490","NORAD_CAT_ID":"48312","SEMIMAJOR_AXIS":"6925.337","OBJECT_ID":"2021-036AN","LAUNCH_DATE":"2021-04-29","PERIAPSIS":"545.575","TLE_LINE1":"1 48312U 21036AN  22163.53688482  .00001109  00000-0  93344-4 0  9996","RCS_SIZE":"LARGE","OBJECT_NAME":"STARLINK-2061","REV_AT_EPOCH":"6226","TIME_SYSTEM":"UTC","REF_FRAME":"TEME","INCLINATION":"53.0559","CLASSIFICATION_TYPE":"U","OBJECT_TYPE":"PAYLOAD","ARG_OF_PERICENTER":"61.5409","MEAN_MOTION_DOT":"0.00001109"},{"SEMIMAJOR_AXIS":"6925.374","OBJECT_ID":"2021-036AP","LAUNCH_DATE":"2021-04-29","PERIAPSIS":"545.925","TLE_LINE1":"1 48313U 21036AP  22163.53320117 -.00000405  00000-0 -82578-5 0  9993","EPHEMERIS_TYPE":"0","ECCENTRICITY":"0.00018980","NORAD_CAT_ID":"48313","CLASSIFICATION_TYPE":"U","OBJECT_TYPE":"PAYLOAD","ARG_OF_PERICENTER":"60.4657","MEAN_MOTION_DOT":"-0.00000405","RCS_SIZE":"LARGE","OBJECT_NAME":"STARLINK-2541","TIME_SYSTEM":"UTC","REV_AT_EPOCH":"6290","REF_FRAME":"TEME","INCLINATION":"53.0554","MEAN_MOTION":"15.06391575","APOAPSIS":"548.554","RA_OF_ASC_NODE":"104.5209","MEAN_MOTION_DDOT":"0.0000000000000","CENTER_NAME":"EARTH","PERIOD":"95.593","MEAN_ANOMALY":"299.6521","BSTAR":"-0.00000825780000","MEAN_ELEMENT_THEORY":"SGP4","FILE":"3492763","TLE_LINE2":"2 48313  53.0554 104.5209 0001898  60.4657 299.6521 15.06391575 62901","DECAY_DATE":null,"EPOCH":"2022-06-12T12:47:48.581088","ELEMENT_SET_NO":"999","SITE":"AFETR","GP_ID":"205944676","COUNTRY_CODE":"US"},{"NORAD_CAT_ID":"48314","EPHEMERIS_TYPE":"0","ECCENTRICITY":"0.00019580","LAUNCH_DATE":"2021-04-29","OBJECT_ID":"2021-036AQ","PERIAPSIS":"545.898","TLE_LINE1":"1 48314U 21036AQ  22163.52952472 -.00000719  00000-0 -29378-4 0  9994","SEMIMAJOR_AXIS":"6925.389","TIME_SYSTEM":"UTC","REV_AT_EPOCH":"6225","REF_FRAME":"TEME","INCLINATION":"53.0548","RCS_SIZE":"LARGE","OBJECT_NAME":"STARLINK-2549","OBJECT_TYPE":"PAYLOAD","CLASSIFICATION_TYPE":"U","ARG_OF_PERICENTER":"67.4021","MEAN_MOTION_DOT":"-0.00000719","MEAN_ELEMENT_THEORY":"SGP4","FILE":"3493305","TLE_LINE2":"2 48314  53.0548 104.5593 0001958  67.4021 292.7175 15.06386893 62254","MEAN_MOTION_DDOT":"0.0000000000000","CENTER_NAME":"EARTH","PERIOD":"95.593","BSTAR":"-0.00002937800000","MEAN_ANOMALY":"292.7175","APOAPSIS":"548.610","RA_OF_ASC_NODE":"104.5593","MEAN_MOTION":"15.06386893","COUNTRY_CODE":"US","GP_ID":"205977867","SITE":"AFETR","EPOCH":"2022-06-12T12:42:30.935808","ELEMENT_SET_NO":"999","DECAY_DATE":null},{"TLE_LINE2":"2 48315  53.0550 103.0688 0001861  60.6825 299.4350 15.06393155 62301","FILE":"3493781","MEAN_ELEMENT_THEORY":"SGP4","PERIOD":"95.593","MEAN_ANOMALY":"299.4350","BSTAR":"0.00007182900000","CENTER_NAME":"EARTH","MEAN_MOTION_DDOT":"0.0000000000000","RA_OF_ASC_NODE":"103.0688","APOAPSIS":"548.523","MEAN_MOTION":"15.06393155","GP_ID":"206014979","COUNTRY_CODE":"US","SITE":"AFETR","EPOCH":"2022-06-12T20:33:31.653504","ELEMENT_SET_NO":"999","DECAY_DATE":null,"NORAD_CAT_ID":"48315","ECCENTRICITY":"0.00018610","EPHEMERIS_TYPE":"0","TLE_LINE1":"1 48315U 21036AR  22163.85661636  .00000788  00000-0  71829-4 0  9992","LAUNCH_DATE":"2021-04-29","OBJECT_ID":"2021-036AR","PERIAPSIS":"545.946","SEMIMAJOR_AXIS":"6925.370","INCLINATION":"53.0550","REF_FRAME":"TEME","REV_AT_EPOCH":"6230","TIME_SYSTEM":"UTC","OBJECT_NAME":"STARLINK-2506","RCS_SIZE":"LARGE","MEAN_MOTION_DOT":"0.00000788","ARG_OF_PERICENTER":"60.6825","OBJECT_TYPE":"PAYLOAD","CLASSIFICATION_TYPE":"U"},{"DECAY_DATE":null,"ELEMENT_SET_NO":"999","EPOCH":"2022-06-12T20:29:34.703232","SITE":"AFETR","COUNTRY_CODE":"US","GP_ID":"206013733","MEAN_MOTION":"15.06397424","APOAPSIS":"548.600","RA_OF_ASC_NODE":"103.0940","MEAN_MOTION_DDOT":"0.0000000000000","CENTER_NAME":"EARTH","PERIOD":"95.592","BSTAR":"0.00006018600000","MEAN_ANOMALY":"302.1653","MEAN_ELEMENT_THEORY":"SGP4","FILE":"3493781","TLE_LINE2":"2 48316  53.0544 103.0940 0001990  57.9529 302.1653 15.06397424 62300","CLASSIFICATION_TYPE":"U","OBJECT_TYPE":"PAYLOAD","ARG_OF_PERICENTER":"57.9529","MEAN_MOTION_DOT":"0.00000615","RCS_SIZE":"LARGE","OBJECT_NAME":"STARLINK-2507","TIME_SYSTEM":"UTC","REV_AT_EPOCH":"6230","REF_FRAME":"TEME","INCLINATION":"53.0544","SEMIMAJOR_AXIS":"6925.356","PERIAPSIS":"545.843","LAUNCH_DATE":"2021-04-29","OBJECT_ID":"2021-036AS","TLE_LINE1":"1 48316U 21036AS  22163.85387388  .00000615  00000-0  60186-4 0  9995","EPHEMERIS_TYPE":"0","ECCENTRICITY":"0.00019900","NORAD_CAT_ID":"48316"},{"NORAD_CAT_ID":"48317","EPHEMERIS_TYPE":"0","ECCENTRICITY":"0.00023200","OBJECT_ID":"2021-036AT","LAUNCH_DATE":"2021-04-29","PERIAPSIS":"545.590","TLE_LINE1":"1 48317U 21036AT  22163.85019093 -.00000044  00000-0  15970-4 0  9999","SEMIMAJOR_AXIS":"6925.332","REV_AT_EPOCH":"6295","TIME_SYSTEM":"UTC","REF_FRAME":"TEME","INCLINATION":"53.0527","RCS_SIZE":"LARGE","OBJECT_NAME":"STARLINK-2513","OBJECT_TYPE":"PAYLOAD","CLASSIFICATION_TYPE":"U","ARG_OF_PERICENTER":"66.4355","MEAN_MOTION_DOT":"-0.00000044","MEAN_ELEMENT_THEORY":"SGP4","FILE":"3493394","TLE_LINE2":"2 48317  53.0527 103.1142 0002320  66.4355 293.6878 15.06405495 62959","MEAN_MOTION_DDOT":"0.0000000000000","CENTER_NAME":"EARTH","PERIOD":"95.592","BSTAR":"0.00001597000000","MEAN_ANOMALY":"293.6878","APOAPSIS":"548.803","RA_OF_ASC_NODE":"103.1142","MEAN_MOTION":"15.06405495","COUNTRY_CODE":"US","GP_ID":"205984160","SITE":"AFETR","ELEMENT_SET_NO":"999","EPOCH":"2022-06-12T20:24:16.496352","DECAY_DATE":null},{"MEAN_MOTION":"15.06393052","RA_OF_ASC_NODE":"113.1591","APOAPSIS":"548.672","BSTAR":"0.00006420100000","PERIOD":"95.593","MEAN_ANOMALY":"301.1857","CENTER_NAME":"EARTH","MEAN_MOTION_DDOT":"0.0000000000000","TLE_LINE2":"2 48318  53.0563 113.1591 0002075  58.9336 301.1857 15.06393052 62161","FILE":"3493781","MEAN_ELEMENT_THEORY":"SGP4","DECAY_DATE":null,"ELEMENT_SET_NO":"999","EPOCH":"2022-06-12T20:12:20.038176","SITE":"AFETR","GP_ID":"206015234","COUNTRY_CODE":"US","SEMIMAJOR_AXIS":"6925.370","TLE_LINE1":"1 48318U 21036AU  22163.84189859  .00000674  00000-0  64201-4 0  9996","PERIAPSIS":"545.798","LAUNCH_DATE":"2021-04-29","OBJECT_ID":"2021-036AU","ECCENTRICITY":"0.00020750","EPHEMERIS_TYPE":"0","NORAD_CAT_ID":"48318","MEAN_MOTION_DOT":"0.00000674","ARG_OF_PERICENTER":"58.9336","OBJECT_TYPE":"PAYLOAD","CLASSIFICATION_TYPE":"U","OBJECT_NAME":"STARLINK-2509","RCS_SIZE":"LARGE","INCLINATION":"53.0563","REF_FRAME":"TEME","TIME_SYSTEM":"UTC","REV_AT_EPOCH":"6216"},{"MEAN_MOTION":"15.06394596","RA_OF_ASC_NODE":"112.8638","APOAPSIS":"548.669","MEAN_ANOMALY":"299.1954","PERIOD":"95.592","BSTAR":"0.00007235200000","CENTER_NAME":"EARTH","MEAN_MOTION_DDOT":"0.0000000000000","TLE_LINE2":"2 48319  53.0567 112.8638 0002077  60.9243 299.1954 15.06394596 62175","FILE":"3493781","MEAN_ELEMENT_THEORY":"SGP4","DECAY_DATE":null,"EPOCH":"2022-06-12T21:41:12.452640","ELEMENT_SET_NO":"999","SITE":"AFETR","GP_ID":"206015480","COUNTRY_CODE":"US","SEMIMAJOR_AXIS":"6925.365","TLE_LINE1":"1 48319U 21036AV  22163.90361635  .00000796  00000-0  72352-4 0  9999","PERIAPSIS":"545.792","LAUNCH_DATE":"2021-04-29","OBJECT_ID":"2021-036AV","ECCENTRICITY":"0.00020770","EPHEMERIS_TYPE":"0","NORAD_CAT_ID":"48319","MEAN_MOTION_DOT":"0.00000796","ARG_OF_PERICENTER":"60.9243","OBJECT_TYPE":"PAYLOAD","CLASSIFICATION_TYPE":"U","OBJECT_NAME":"STARLINK-2512","RCS_SIZE":"LARGE","INCLINATION":"53.0567","REF_FRAME":"TEME","REV_AT_EPOCH":"6217","TIME_SYSTEM":"UTC"}];
